[ {"spaceTrack": {"CCSDS_OMM_VERS": "2.0", "COMMENT": "GENERATED VIA SPACE-TRACK.ORG API", "CREATION_DATE": "2020-08-23 22:46:10", "ORIGINATOR": "18 SPCS", "OBJECT_NAME": "STARLINK-1460", "OBJECT_ID": "2020-035V", "CENTER_NAME": "EARTH", "REF_FRAME": "TEME", "TIME_SYSTEM": "UTC", "MEAN_ELEMENT_THEORY": "SGP4", "EPOCH": "2020-08-23 22:00:00.999936", "MEAN_MOTION": 15.05586778, "ECCENTRICITY": 0.0001911, "INCLINATION": 53.0013, "RA_OF_ASC_NODE": 151.6839, "ARG_OF_PERICENTER": 69.3407, "MEAN_ANOMALY": 339.2575, "EPHEMERIS_TYPE": 0, "CLASSIFICATION_TYPE": "U", "NORAD_CAT_ID": 45676, "ELEMENT_SET_NO": 999, "REV_AT_EPOCH": 1330, "BSTAR": -0.0021902, "MEAN_MOTION_DOT": -0.00032053, "MEAN_MOTION_DDOT": 0, "SEMIMAJOR_AXIS": 6927.842, "PERIOD": 95.643, "APOAPSIS": 551.03, "PERIAPSIS": 548.383, "OBJECT_TYPE": "PAYLOAD", "RCS_SIZE": "LARGE", "COUNTRY_CODE": "US", "LAUNCH_DATE": "2020-06-04", "SITE": "AFETR", "DECAY_DATE": null, "DECAYED": 0, "FILE": 2807317, "GP_ID": 159987625, "TLE_LINE0": "0 STARLINK-1460", "TLE_LINE1": "1 45676U 20035V   20236.91667824 -.00032053  00000-0 -21902-2 0  9995", "TLE_LINE2": "2 45676  53.0013 151.6839 0001911  69.3407 339.2575 15.05586778 13309"}, "version": "v1.0", "launch": "5eb87d45ffd86e000604b387", "longitude": -142.1806637983506, "latitude": 35.978368155870605, "height_km": 551.2572056166127, "velocity_kms": 7.591506649790935, "id": "5eed7715096e590006985717"}, {"spaceTrack": {"CCSDS_OMM_VERS": "2.0", "COMMENT": "GENERATED VIA SPACE-TRACK.ORG API", "CREATION_DATE": "2020-08-23 17:26:13", "ORIGINATOR": "18 SPCS", "OBJECT_NAME": "STARLINK-1218", "OBJECT_ID": "2020-012AH", "CENTER_NAME": "EARTH", "REF_FRAME": "TEME", "TIME_SYSTEM": "UTC", "MEAN_ELEMENT_THEORY": "SGP4", "EPOCH": "2020-08-23 14:00:01.999872", "MEAN_MOTION": 15.05586083, "ECCENTRICITY": 0.0001724, "INCLINATION": 52.9982, "RA_OF_ASC_NODE": 113.1832, "ARG_OF_PERICENTER": 97.2421, "MEAN_ANOMALY": 235.8338, "EPHEMERIS_TYPE": 0, "CLASSIFICATION_TYPE": "U", "NORAD_CAT_ID": 45209, "ELEMENT_SET_NO": 999, "REV_AT_EPOCH": 175, "BSTAR": 0.0028679, "MEAN_MOTION_DOT": 0.00041761, "MEAN_MOTION_DDOT": 0, "SEMIMAJOR_AXIS": 6927.844, "PERIOD": 95.643, "APOAPSIS": 550.903, "PERIAPSIS": 548.514, "OBJECT_TYPE": "PAYLOAD", "RCS_SIZE": "LARGE", "COUNTRY_CODE": "US", "LAUNCH_DATE": "2020-02-17", "SITE": "AFETR", "DECAY_DATE": null, "DECAYED": 0, "FILE": 2807181, "GP_ID": 159960920, "TLE_LINE0": "0 STARLINK-1218", "TLE_LINE1": "1 45209U 20012AH  20236.58335648 +.00041761 +00000-0 +28679-2 0  9993", "TLE_LINE2": "2 45209 052.9982 113.1832 0001724 097.2421 235.8338 15.05586083001751"}, "version": "v1.0", "launch": "5eb87d41ffd86e000604b383", "longitude": 131.89582558280478, "latitude": -16.682023534636155, "height_km": 554.6803811122581, "velocity_kms": 7.584292305140926, "id": "5eed7715096e590006985718"}, {"spaceTrack": {"CCSDS_OMM_VERS": "2.0", "COMMENT": "GENERATED VIA SPACE-TRACK.ORG API", "CREATION_DATE": "2020-08-23 14:56:10", "ORIGINATOR": "18 SPCS", "OBJECT_NAME": "STARLINK-1138", "OBJECT_ID": "2020-012A", "CENTER_NAME": "EARTH", "REF_FRAME": "TEME", "TIME_SYSTEM": "UTC", "MEAN_ELEMENT_THEORY": "SGP4", "EPOCH": "2020-08-23 14:00:01.999872", "MEAN_MOTION": 15.05562355, "ECCENTRICITY": 0.0001754, "INCLINATION": 52.9972, "RA_OF_ASC_NODE": 133.1853, "ARG_OF_PERICENTER": 85.3624, "MEAN_ANOMALY": 353.602, "EPHEMERIS_TYPE": 0, "CLASSIFICATION_TYPE": "U", "NORAD_CAT_ID": 45178, "ELEMENT_SET_NO": 999, "REV_AT_EPOCH": 2911, "BSTAR": 0.0052854, "MEAN_MOTION_DOT": 0.00077544, "MEAN_MOTION_DDOT": 0, "SEMIMAJOR_AXIS": 6927.917, "PERIOD": 95.645, "APOAPSIS": 550.997, "PERIAPSIS": 548.566, "OBJECT_TYPE": "PAYLOAD", "RCS_SIZE": "LARGE", "COUNTRY_CODE": "US", "LAUNCH_DATE": "2020-02-17", "SITE": "AFETR", "DECAY_DATE": null, "DECAYED": 0, "FILE": 2807098, "GP_ID": 159941011, "TLE_LINE0": "0 STARLINK-1138", "TLE_LINE1": "1 45178U 20012A   20236.58335648  .00077544  00000-0  52854-2 0  9998", "TLE_LINE2": "2 45178  52.9972 133.1853 0001754  85.3624 353.6020 15.05562355 29119"}, "version": "v1.0", "launch": "5eb87d41ffd86e000604b383", "longitude": -113.63234876916299, "latitude": 52.84253427501778, "height_km": 554.8554466515925, "velocity_kms": 7.591257985920056, "id": "5eed7715096e590006985719"}, {"spaceTrack": {"CCSDS_OMM_VERS": "2.0", "COMMENT": "GENERATED VIA SPACE-TRACK.ORG API", "CREATION_DATE": "2020-08-23 17:26:13", "ORIGINATOR": "18 SPCS", "OBJECT_NAME": "STARLINK-1194", "OBJECT_ID": "2020-006BK", "CENTER_NAME": "EARTH", "REF_FRAME": "TEME", "TIME_SYSTEM": "UTC", "MEAN_ELEMENT_THEORY": "SGP4", "EPOCH": "2020-08-23 14:00:01.999872", "MEAN_MOTION": 15.05599201, "ECCENTRICITY": 0.0001069, "INCLINATION": 52.9979, "RA_OF_ASC_NODE": 333.1856, "ARG_OF_PERICENTER": 105.528, "MEAN_ANOMALY": 152.544, "EPHEMERIS_TYPE": 0, "CLASSIFICATION_TYPE": "U", "NORAD_CAT_ID": 45101, "ELEMENT_SET_NO": 999, "REV_AT_EPOCH": 175, "BSTAR": -6.7808e-05, "MEAN_MOTION_DOT": -1.268e-05, "MEAN_MOTION_DDOT": 0, "SEMIMAJOR_AXIS": 6927.803, "PERIOD": 95.642, "APOAPSIS": 550.409, "PERIAPSIS": 548.928, "OBJECT_TYPE": "PAYLOAD", "RCS_SIZE": "LARGE", "COUNTRY_CODE": "US", "LAUNCH_DATE": "2020-01-29", "SITE": "AFETR", "DECAY_DATE": null, "DECAYED": 0, "FILE": 2807181, "GP_ID": 159963390, "TLE_LINE0": "0 STARLINK-1194", "TLE_LINE1": "1 45101U 20006BK  20236.58335648 -.00001268 +00000-0 -67808-4 0  9996", "TLE_LINE2": "2 45101 052.9979 333.1856 0001069 105.5280 152.5440 15.05599201001751"}, "version": "v1.0", "launch": "5eb87d3fffd86e000604b382", "longitude": -95.04659789553692, "latitude": -52.732148202537324, "height_km": 568.6514379980363, "velocity_kms": 7.576170897057512, "id": "5eed7715096e59000698571a"}, {"spaceTrack": {"CCSDS_OMM_VERS": "2.0", "COMMENT": "GENERATED VIA SPACE-TRACK.ORG API", "CREATION_DATE": "2020-08-23 22:46:10", "ORIGINATOR": "18 SPCS", "OBJECT_NAME": "STARLINK-1295", "OBJECT_ID": "2020-019P", "CENTER_NAME": "EARTH", "REF_FRAME": "TEME", "TIME_SYSTEM": "UTC", "MEAN_ELEMENT_THEORY": "SGP4", "EPOCH": "2020-08-23 22:00:00.999936", "MEAN_MOTION": 15.05571127, "ECCENTRICITY": 8.46e-05, "INCLINATION": 52.9984, "RA_OF_ASC_NODE": 251.6871, "ARG_OF_PERICENTER": 87.5589, "MEAN_ANOMALY": 328.3265, "EPHEMERIS_TYPE": 0, "CLASSIFICATION_TYPE": "U", "NORAD_CAT_ID": 45373, "ELEMENT_SET_NO": 999, "REV_AT_EPOCH": 2471, "BSTAR": 0.0029106, "MEAN_MOTION_DOT": 0.00042373, "MEAN_MOTION_DDOT": 0, "SEMIMAJOR_AXIS": 6927.89, "PERIOD": 95.644, "APOAPSIS": 550.341, "PERIAPSIS": 549.169, "OBJECT_TYPE": "PAYLOAD", "RCS_SIZE": "LARGE", "COUNTRY_CODE": "US", "LAUNCH_DATE": "2020-03-18", "SITE": "AFETR", "DECAY_DATE": null, "DECAYED": 0, "FILE": 2807326, "GP_ID": 159987735, "TLE_LINE0": "0 STARLINK-1295", "TLE_LINE1": "1 45373U 20019P   20236.91667824  .00042373  00000-0  29106-2 0  9999", "TLE_LINE2": "2 45373  52.9984 251.6871 0000846  87.5589 328.3265 15.05571127 24718"}, "version": "v1.0", "launch": "5eb87d43ffd86e000604b385", "longitude": -35.1764414299769, "latitude": 40.58935191575263, "height_km": 552.9600101945161, "velocity_kms": 7.590664434813815, "id": "5eed7715096e59000698571b"}, {"spaceTrack": {"CCSDS_OMM_VERS": "2.0", "COMMENT": "GENERATED VIA SPACE-TRACK.ORG API", "CREATION_DATE": "2020-08-23 17:26:13", "ORIGINATOR": "18 SPCS", "OBJECT_NAME": "STARLINK-1184", "OBJECT_ID": "2020-006BG", "CENTER_NAME": "EARTH", "REF_FRAME": "TEME", "TIME_SYSTEM": "UTC", "MEAN_ELEMENT_THEORY": "SGP4", "EPOCH": "2020-08-23 14:00:01.999872", "MEAN_MOTION": 15.05586319, "ECCENTRICITY": 0.000116, "INCLINATION": 53.0001, "RA_OF_ASC_NODE": 333.1838, "ARG_OF_PERICENTER": 110.3863, "MEAN_ANOMALY": 111.7648, "EPHEMERIS_TYPE": 0, "CLASSIFICATION_TYPE": "U", "NORAD_CAT_ID": 45098, "ELEMENT_SET_NO": 999, "REV_AT_EPOCH": 3049, "BSTAR": -0.0001314, "MEAN_MOTION_DOT": -2.193e-05, "MEAN_MOTION_DDOT": 0, "SEMIMAJOR_AXIS": 6927.843, "PERIOD": 95.643, "APOAPSIS": 550.512, "PERIAPSIS": 548.904, "OBJECT_TYPE": "PAYLOAD", "RCS_SIZE": "LARGE", "COUNTRY_CODE": "US", "LAUNCH_DATE": "2020-01-29", "SITE": "AFETR", "DECAY_DATE": null, "DECAYED": 0, "FILE": 2807181, "GP_ID": 159962165, "TLE_LINE0": "0 STARLINK-1184", "TLE_LINE1": "1 45098U 20006BG  20236.58335648 -.00002193 +00000-0 -13140-3 0  9998", "TLE_LINE2": "2 45098 053.0001 333.1838 0001160 110.3863 111.7648 15.05586319030493"}, "version": "v1.0", "launch": "5eb87d3fffd86e000604b382", "longitude": -141.23784836779518, "latitude": -36.63895456281921, "height_km": 561.8313839302191, "velocity_kms": 7.580064213813477, "id": "5eed7715096e59000698571c"}, {"spaceTrack": {"CCSDS_OMM_VERS": "2.0", "COMMENT": "GENERATED VIA SPACE-TRACK.ORG API", "CREATION_DATE": "2020-08-23 17:26:13", "ORIGINATOR": "18 SPCS", "OBJECT_NAME": "STARLINK-1196", "OBJECT_ID": "2020-006BM", "CENTER_NAME": "EARTH", "REF_FRAME": "TEME", "TIME_SYSTEM": "UTC", "MEAN_ELEMENT_THEORY": "SGP4", "EPOCH": "2020-08-23 14:00:01.999872", "MEAN_MOTION": 15.05593638, "ECCENTRICITY": 0.0001047, "INCLINATION": 52.9993, "RA_OF_ASC_NODE": 333.182, "ARG_OF_PERICENTER": 105.3439, "MEAN_ANOMALY": 260.828, "EPHEMERIS_TYPE": 0, "CLASSIFICATION_TYPE": "U", "NORAD_CAT_ID": 45103, "ELEMENT_SET_NO": 999, "REV_AT_EPOCH": 3230, "BSTAR": -0.00046948, "MEAN_MOTION_DOT": -7.115e-05, "MEAN_MOTION_DDOT": 0, "SEMIMAJOR_AXIS": 6927.821, "PERIOD": 95.643, "APOAPSIS": 550.411, "PERIAPSIS": 548.96, "OBJECT_TYPE": "PAYLOAD", "RCS_SIZE": "LARGE", "COUNTRY_CODE": "US", "LAUNCH_DATE": "2020-01-29", "SITE": "AFETR", "DECAY_DATE": null, "DECAYED": 0, "FILE": 2807181, "GP_ID": 159963827, "TLE_LINE0": "0 STARLINK-1196", "TLE_LINE1": "1 45103U 20006BM  20236.58335648 -.00007115 +00000-0 -46948-3 0  9996", "TLE_LINE2": "2 45103 052.9993 333.1820 0001047 105.3439 260.8280 15.05593638032308"}, "version": "v1.0", "launch": "5eb87d3fffd86e000604b382", "longitude": 12.14847978958112, "latitude": 9.57371261445114, "height_km": 549.8960758684143, "velocity_kms": 7.588877613212053, "id": "5eed7715096e59000698571d"}]